{"type": "FeatureCollection", "features": [ {"type": "Feature", "properties": {"norad_id": 58662, "name": "TIANMU-1 21", "group": "weather", "lat": -47.077806974339545, "lon": 100.25841883960997, "alt_km": 474.94116196484174, "timestamp": "2025-12-04T19:33:59.278598+00:00", "meta": {"OBJECT_NAME": "TIANMU-1 21", "OBJECT_ID": "2023-208C", "EPOCH": "2025-12-04T07:13:38.051904", "MEAN_MOTION": 15.31272254, "ECCENTRICITY": 0.00059556, "INCLINATION": 97.4381, "RA_OF_ASC_NODE": 91.667, "ARG_OF_PERICENTER": 295.7268, "MEAN_ANOMALY": 64.3358, "EPHEMERIS_TYPE": 0, "CLASSIFICATION_TYPE": "U", "NORAD_CAT_ID": 58662, "ELEMENT_SET_NO": 999, "REV_AT_EPOCH": 10770, "BSTAR": 0.00074207087, "MEAN_MOTION_DOT": 0.00022388, "MEAN_MOTION_DDOT": 0}, "tle": {"line1": "1 58662U 23208C   25338.30113486  .00022388  00000+0  74207-3 0  9994", "line2": "2 58662  97.4381  91.6670 0005955 295.7268  64.3358 15.31272254107709"}}, "geometry": {"type": "Point", "coordinates": [100.25841883960997, -47.077806974339545]}}, {"type": "Feature", "properties": {"norad_id": 58663, "name": "TIANMU-1 22", "group": "weather", "lat": -13.59866314776182, "lon": 91.7435562266657, "alt_km": 486.3332150320466, "timestamp": "2025-12-04T19:33:59.278607+00:00", "meta": {"OBJECT_NAME": "TIANMU-1 22", "OBJECT_ID": "2023-208D", "EPOCH": "2025-12-04T07:02:52.137600", "MEAN_MOTION": 15.27381982, "ECCENTRICITY": 0.00030136, "INCLINATION": 97.4389, "RA_OF_ASC_NODE": 89.4122, "ARG_OF_PERICENTER": 327.3005, "MEAN_ANOMALY": 32.8047, "EPHEMERIS_TYPE": 0, "CLASSIFICATION_TYPE": "U", "NORAD_CAT_ID": 58663, "ELEMENT_SET_NO": 999, "REV_AT_EPOCH": 10754, "BSTAR": 0.00068952189, "MEAN_MOTION_DOT": 0.00018439, "MEAN_MOTION_DDOT": 0}, "tle": {"line1": "1 58663U 23208D   25338.29365900  .00018439  00000+0  68952-3 0  9995", "line2": "2 58663  97.4389  89.4122 0003013 327.3005  32.8047 15.27381982107540"}}, "geometry": {"type": "Point", "coordinates": [91.7435562266657, -13.59866314776182]}}, {"type": "Feature", "properties": {"norad_id": 58700, "name": "TIANMU-1 15", "group": "weather", "lat": -18.374683174399316, "lon": -22.182099229772085, "alt_km": 500.0028821145261, "timestamp": "2025-12-04T19:33:59.278616+00:00", "meta": {"OBJECT_NAME": "TIANMU-1 15", "OBJECT_ID": "2024-004A", "EPOCH": "2025-12-04T07:40:17.230368", "MEAN_MOTION": 15.24504673, "ECCENTRICITY": 0.00057175, "INCLINATION": 97.4624, "RA_OF_ASC_NODE": 159.8197, "ARG_OF_PERICENTER": 332.3922, "MEAN_ANOMALY": 27.7011, "EPHEMERIS_TYPE": 0, "CLASSIFICATION_TYPE": "U", "NORAD_CAT_ID": 58700, "ELEMENT_SET_NO": 999, "REV_AT_EPOCH": 10606, "BSTAR": 0.00061613065, "MEAN_MOTION_DOT": 0.000151, "MEAN_MOTION_DDOT": 0}, "tle": {"line1": "1 58700U 24004A   25338.31964387  .00015100  00000+0  61613-3 0  9998", "line2": "2 58700  97.4624 159.8197 0005717 332.3922  27.7011 15.24504673106066"}}, "geometry": {"type": "Point", "coordinates": [-22.182099229772085, -18.374683174399316]}}, {"type": "Feature", "properties": {"norad_id": 58701, "name": "TIANMU-1 16", "group": "weather", "lat": -71.2523792057628, "lon": -177.58686395924025, "alt_km": 497.76549960509055, "timestamp": "2025-12-04T19:33:59.278626+00:00", "meta": {"OBJECT_NAME": "TIANMU-1 16", "OBJECT_ID": "2024-004B", "EPOCH": "2025-12-04T04:07:45.875136", "MEAN_MOTION": 15.2424919, "ECCENTRICITY": 0.00050435, "INCLINATION": 97.4575, "RA_OF_ASC_NODE": 159.0714, "ARG_OF_PERICENTER": 331.4441, "MEAN_ANOMALY": 28.6519, "EPHEMERIS_TYPE": 0, "CLASSIFICATION_TYPE": "U", "NORAD_CAT_ID": 58701, "ELEMENT_SET_NO": 999, "REV_AT_EPOCH": 10604, "BSTAR": 8.2071488e-05, "MEAN_MOTION_DOT": 1.931e-05, "MEAN_MOTION_DDOT": 0}, "tle": {"line1": "1 58701U 24004B   25338.17205874  .00001931  00000+0  82071-4 0  9991", "line2": "2 58701  97.4575 159.0714 0005043 331.4441  28.6519 15.24249190106048"}}, "geometry": {"type": "Point", "coordinates": [-177.58686395924025, -71.2523792057628]}}, {"type": "Feature", "properties": {"norad_id": 58702, "name": "TIANMU-1 17", "group": "weather", "lat": 10.387744573019765, "lon": 158.7408051329925, "alt_km": 492.1480410522463, "timestamp": "2025-12-04T19:33:59.278635+00:00", "meta": {"OBJECT_NAME": "TIANMU-1 17", "OBJECT_ID": "2024-004C", "EPOCH": "2025-12-04T08:29:32.028288", "MEAN_MOTION": 15.24303656, "ECCENTRICITY": 0.00042317, "INCLINATION": 97.4596, "RA_OF_ASC_NODE": 159.6579, "ARG_OF_PERICENTER": 335.4727, "MEAN_ANOMALY": 24.6309, "EPHEMERIS_TYPE": 0, "CLASSIFICATION_TYPE": "U", "NORAD_CAT_ID": 58702, "ELEMENT_SET_NO": 999, "REV_AT_EPOCH": 10606, "BSTAR": 0.00059623821, "MEAN_MOTION_DOT": 0.00014519, "MEAN_MOTION_DDOT": 0}, "tle": {"line1": "1 58702U 24004C   25338.35384292  .00014519  00000+0  59624-3 0  9997", "line2": "2 58702  97.4596 159.6579 0004231 335.4727  24.6309 15.24303656106069"}}, "geometry": {"type": "Point", "coordinates": [158.7408051329925, 10.387744573019765]}}, {"type": "Feature", "properties": {"norad_id": 58703, "name": "TIANMU-1 18", "group": "weather", "lat": 75.51948803853689, "lon": 10.80629494270408, "alt_km": 487.236810425733, "timestamp": "2025-12-04T19:33:59.278645+00:00", "meta": {"OBJECT_NAME": "TIANMU-1 18", "OBJECT_ID": "2024-004D", "EPOCH": "2025-12-04T08:05:25.257696", "MEAN_MOTION": 15.24294434, "ECCENTRICITY": 0.00036192, "INCLINATION": 97.4613, "RA_OF_ASC_NODE": 159.8347, "ARG_OF_PERICENTER": 336.377, "MEAN_ANOMALY": 23.73, "EPHEMERIS_TYPE": 0, "CLASSIFICATION_TYPE": "U", "NORAD_CAT_ID": 58703, "ELEMENT_SET_NO": 999, "REV_AT_EPOCH": 10606, "BSTAR": 0.00060847584, "MEAN_MOTION_DOT": 0.00014814, "MEAN_MOTION_DDOT": 0}, "tle": {"line1": "1 58703U 24004D   25338.33709789  .00014814  00000+0  60848-3 0  9996", "line2": "2 58703  97.4613 159.8347 0003619 336.3770  23.7300 15.24294434106066"}}, "geometry": {"type": "Point", "coordinates": [10.80629494270408, 75.51948803853689]}}, {"type": "Feature", "properties": {"norad_id": 58990, "name": "INSAT-3DS", "group": "weather", "lat": 0.03362039021028834, "lon": 89.43172798016015, "alt_km": 35794.33016796843, "timestamp": "2025-12-04T19:33:59.278655+00:00", "meta": {"OBJECT_NAME": "INSAT-3DS", "OBJECT_ID": "2024-033A", "EPOCH": "2025-12-04T01:49:38.770752", "MEAN_MOTION": 1.00268791, "ECCENTRICITY": 0.00017676, "INCLINATION": 0.0127, "RA_OF_ASC_NODE": 334.3942, "ARG_OF_PERICENTER": 285.4256, "MEAN_ANOMALY": 282.8293, "EPHEMERIS_TYPE": 0, "CLASSIFICATION_TYPE": "U", "NORAD_CAT_ID": 58990, "ELEMENT_SET_NO": 999, "REV_AT_EPOCH": 4511, "BSTAR": 0, "MEAN_MOTION_DOT": 0, "MEAN_MOTION_DDOT": 0}, "tle": {"line1": "1 58990U 24033A   25338.07614318  .00000000  00000+0  00000+0 0  9992", "line2": "2 58990   0.0127 334.3942 0001767 285.4256 282.8293  1.00268791 45113"}}, "geometry": {"type": "Point", "coordinates": [89.43172798016015, 0.03362039021028834]}}, {"type": "Feature", "properties": {"norad_id": 59051, "name": "METEOR-M2 4", "group": "weather", "lat": -57.44532504418447, "lon": -50.31452586613634, "alt_km": 823.2753133651895, "timestamp": "2025-12-04T19:33:59.278664+00:00", "meta": {"OBJECT_NAME": "METEOR-M2 4", "OBJECT_ID": "2024-039A", "EPOCH": "2025-12-04T08:01:23.133792", "MEAN_MOTION": 14.22399275, "ECCENTRICITY": 0.00074929, "INCLINATION": 98.6754, "RA_OF_ASC_NODE": 295.3755, "ARG_OF_PERICENTER": 21.979, "MEAN_ANOMALY": 338.1708, "EPHEMERIS_TYPE": 0, "CLASSIFICATION_TYPE": "U", "NORAD_CAT_ID": 59051, "ELEMENT_SET_NO": 999, "REV_AT_EPOCH": 9156, "BSTAR": 5.9541393e-05, "MEAN_MOTION_DOT": 8.9e-07, "MEAN_MOTION_DDOT": 0}, "tle": {"line1": "1 59051U 24039A   25338.33429553  .00000089  00000+0  59541-4 0  9997", "line2": "2 59051  98.6754 295.3755 0007492  21.9790 338.1708 14.22399275 91562"}}, "geometry": {"type": "Point", "coordinates": [-50.31452586613634, -57.44532504418447]}}, {"type": "Feature", "properties": {"norad_id": 60133, "name": "GOES 19", "group": "weather", "lat": -0.0006994858450560885, "lon": -67.82293244185703, "alt_km": 35780.64408388484, "timestamp": "2025-12-04T19:33:59.278674+00:00", "meta": {"OBJECT_NAME": "GOES 19", "OBJECT_ID": "2024-119A", "EPOCH": "2025-12-04T06:31:12.588672", "MEAN_MOTION": 1.00270633, "ECCENTRICITY": 0.0001386, "INCLINATION": 0.0086, "RA_OF_ASC_NODE": 73.4081, "ARG_OF_PERICENTER": 224.7152, "MEAN_ANOMALY": 157.8472, "EPHEMERIS_TYPE": 0, "CLASSIFICATION_TYPE": "U", "NORAD_CAT_ID": 60133, "ELEMENT_SET_NO": 999, "REV_AT_EPOCH": 501, "BSTAR": 0, "MEAN_MOTION_DOT": -2.33e-06, "MEAN_MOTION_DDOT": 0}, "tle": {"line1": "1 60133U 24119A   25338.27167348 -.00000233  00000+0  00000+0 0  9996", "line2": "2 60133   0.0086  73.4081 0001386 224.7152 157.8472  1.00270633  5015"}}, "geometry": {"type": "Point", "coordinates": [-67.82293244185703, -0.0006994858450560885]}}, {"type": "Feature", "properties": {"norad_id": 65815, "name": "FENGYUN 3H", "group": "weather", "lat": -69.86837685451654, "lon": 74.01994920105193, "alt_km": 833.3898325451482, "timestamp": "2025-12-04T19:33:59.278684+00:00", "meta": {"OBJECT_NAME": "FENGYUN 3H", "OBJECT_ID": "2025-219A", "EPOCH": "2025-12-04T06:32:45.752928", "MEAN_MOTION": 14.19901033, "ECCENTRICITY": 6.258e-05, "INCLINATION": 98.6572, "RA_OF_ASC_NODE": 278.0475, "ARG_OF_PERICENTER": 72.872, "MEAN_ANOMALY": 287.2525, "EPHEMERIS_TYPE": 0, "CLASSIFICATION_TYPE": "U", "NORAD_CAT_ID": 65815, "ELEMENT_SET_NO": 999, "REV_AT_EPOCH": 972, "BSTAR": 0.00011554288, "MEAN_MOTION_DOT": 2.02e-06, "MEAN_MOTION_DDOT": 0}, "tle": {"line1": "1 65815U 25219A   25338.27275177  .00000202  00000+0  11554-3 0  9995", "line2": "2 65815  98.6572 278.0475 0000625  72.8720 287.2525 14.19901033  9726"}}, "geometry": {"type": "Point", "coordinates": [74.01994920105193, -69.86837685451654]}}]}